{
    "links": {
        "self": "http://www.neowsapp.com/rest/v1/neo/3788148?api_key=iIulBulltgU6a56xZRHN4H3l9WmuAYTsLGpBGhQ2"
    },
    "id": "3788148",
    "neo_reference_id": "3788148",
    "name": "(2017 UH43)",
    "designation": "2017 UH43",
    "nasa_jpl_url": "http://ssd.jpl.nasa.gov/sbdb.cgi?sstr=3788148",
    "absolute_magnitude_h": 23.5,
    "estimated_diameter": {
        "kilometers": {
            "estimated_diameter_min": 0.0530340723,
            "estimated_diameter_max": 0.1185877909
        },
        "meters": {
            "estimated_diameter_min": 53.0340723319,
            "estimated_diameter_max": 118.5877908577
        },
        "miles": {
            "estimated_diameter_min": 0.0329538346,
            "estimated_diameter_max": 0.0736870142
        },
        "feet": {
            "estimated_diameter_min": 173.9963058693,
            "estimated_diameter_max": 389.0675677576
        }
    },
    "is_potentially_hazardous_asteroid": false,
    "close_approach_data": [
        {
            "close_approach_date": "2017-09-30",
            "close_approach_date_full": "2017-Sep-30 01:40",
            "epoch_date_close_approach": 1506735600000,
            "relative_velocity": {
                "kilometers_per_second": "4.9288559269",
                "kilometers_per_hour": "17743.8813369108",
                "miles_per_hour": "11025.3578229266"
            },
            "miss_distance": {
                "astronomical": "0.2385464256",
                "lunar": "92.7945595584",
                "kilometers": "35686037.165873472",
                "miles": "22174275.2600670336"
            },
            "orbiting_body": "Earth"
        }
    ],
    "orbital_data": {
        "orbit_id": "2",
        "orbit_determination_date": "2019-07-19 05:26:23",
        "first_observation_date": "2017-10-28",
        "last_observation_date": "2017-10-30",
        "data_arc_in_days": 2,
        "observations_used": 10,
        "orbit_uncertainty": "9",
        "minimum_orbit_intersection": ".206278",
        "jupiter_tisserand_invariant": "3.442",
        "epoch_osculation": "2458055.5",
        "eccentricity": ".4872045331978933",
        "semi_major_axis": "2.257398335207911",
        "inclination": "8.878198307216127",
        "ascending_node_longitude": "59.16950206277081",
        "orbital_period": "1238.827186417289",
        "perihelion_distance": "1.157583633061239",
        "perihelion_argument": "300.4790746478831",
        "aphelion_distance": "3.357213037354583",
        "perihelion_time": "2458012.706677333884",
        "mean_anomaly": "12.4356297058309",
        "mean_motion": ".290597432755029",
        "equinox": "J2000",
        "orbit_class": {
            "orbit_class_type": "AMO",
            "orbit_class_description": "Near-Earth asteroid orbits similar to that of 1221 Amor",
            "orbit_class_range": "1.017 AU < q (perihelion) < 1.3 AU"
        }
    },
    "is_sentry_object": false
}